ONEWEB-0628             
1 55169U 23004AF  25329.16468712 -.00001043  00000+0 -29354-2 0  9995
2 55169  87.8956  31.1800 0001694 124.0762 236.0527 13.12449177141275
ONEWEB-0629             
1 55170U 23004AG  25329.45267959  .00000086  00000+0  18935-3 0  9997
2 55170  87.9131  46.3914 0001877 112.9741 247.1588 13.17651914140754
ONEWEB-0631             
1 55171U 23004AH  25329.14509864  .00000063  00000+0  12736-3 0  9996
2 55171  87.9203  15.9589 0001641  82.7139 277.4180 13.18685528142787
ONEWEB-0709             
1 55172U 23004AJ  25329.49197050  .00000455  00000+0  12492-2 0  9998
2 55172  87.8860  61.6501 0002069  80.2427 279.8934 13.11416837139176
ONEWEB-0710             
1 55173U 23004AK  25329.46703296  .00001443  00000+0  36829-2 0  9999
2 55173  87.9128  46.3828 0001653  99.9258 260.2060 13.17641751140755
ONEWEB-0711             
1 55174U 23004AL  25329.31054392  .00000115  00000+0  28945-3 0  9996
2 55174  87.8871  61.6590 0001100 121.3408 238.7827 13.11419987139117
ONEWEB-0713             
1 55175U 23004AM  25329.25290912  .00000696  00000+0  19277-2 0  9991
2 55175  87.8862  61.6739 0001371 111.7049 248.4225 13.11420649139091
ONEWEB-0715             
1 55176U 23004AN  25329.32411619  .00001036  00000+0  28872-2 0  9999
2 55176  87.8867  61.6599 0001781  88.0221 272.1111 13.11415351139142
